STARLINK-35417          
1 66335U 25253S   25327.16670139 -.02002473  00000+0 -19912-1 0  9994
2 66335  42.9998  99.4185 0001714 268.1150  26.2567 15.68027176  3787
STARLINK-35404          
1 66336U 25253T   25327.16670139 -.01990339  00000+0 -19782-1 0  9996
2 66336  42.9998  99.4333 0001670 271.0978  17.5246 15.68018746  3886
STARLINK-34783          
1 66337U 25253U   25327.16670139 -.01987288  00000+0 -19749-1 0  9999
2 66337  42.9997  99.4140 0001758 269.9130  26.3786 15.68016288  3836
STARLINK-35477          
1 66338U 25253V   25327.16670139 -.01989895  00000+0 -19777-1 0  9997
2 66338  42.9996  99.4242 0001719 270.4492  22.0072 15.68018424  3884
STARLINK-35443          
1 66339U 25253W   25327.16670139 -.01991962  00000+0 -19799-1 0  9990
2 66339  42.9998  99.3986 0001658 270.3283  31.7130 15.68020153  3839
STARLINK-35218          
1 66340U 25253X   25327.16670139 -.01993234  00000+0 -19813-1 0  9993
2 66340  42.9998  99.4283 0001685 268.0150  22.5239 15.68020846  3881
STARLINK-35522          
1 66341U 25253Y   25327.16670139 -.01996011  00000+0 -19844-1 0  9994
2 66341  42.9999  99.4490 0001701 267.7362  15.1365 15.68021226  3884
STARLINK-35535          
1 66342U 25253Z   25327.16670139 -.01993565  00000+0 -19816-1 0  9995
2 66342  43.0001  99.4037 0001752 269.3832  30.7407 15.68021165  3785
STARLINK-35467          
1 66343U 25253AA  25327.16670139 -.01989180  00000+0 -19769-1 0  9991
2 66343  43.0001  99.4077 0001739 268.9063  29.3022 15.68017740  3787
STARLINK-35511          
1 66344U 25253AB  25327.16670139 -.01977103  00000+0 -19640-1 0  9992
2 66344  42.9997  99.3847 0001648 270.1810  37.6151 15.68010307  3785
STARLINK-35440          
1 66345U 25253AC  25327.16670139 -.01993713  00000+0 -19819-1 0  9996
2 66345  43.0000  99.3917 0001707 266.1684  37.7930 15.68020079  3784
STARLINK-35482          
1 66346U 25253AD  25327.16670139 -.01954808  00000+0 -19404-1 0  9999
2 66346  42.9999  99.3882 0001936 278.5997  27.2915 15.67989002  3886
