CCSDS_OMM_VERS = 2.0
CREATION_DATE  = 
ORIGINATOR     = 

OBJECT_NAME    = STARLINK-35417
OBJECT_ID      = 2025-253S
CENTER_NAME    = EARTH
REF_FRAME      = TEME
TIME_SYSTEM    = UTC
MEAN_ELEMENT_THEORY = SGP/SGP4

EPOCH          = 2025-11-23T04:00:03.000096
MEAN_MOTION    = 15.68027176
ECCENTRICITY   = .0001714
INCLINATION    = 42.9998
RA_OF_ASC_NODE = 99.4185
ARG_OF_PERICENTER = 268.1150
MEAN_ANOMALY   = 26.2567

EPHEMERIS_TYPE = 0
CLASSIFICATION_TYPE = U
NORAD_CAT_ID   = 66335
ELEMENT_SET_NO = 999
REV_AT_EPOCH   = 378
BSTAR          = -.19912E-1
MEAN_MOTION_DOT = -.2002473E-1
MEAN_MOTION_DDOT = 0

CCSDS_OMM_VERS = 2.0
CREATION_DATE  = 
ORIGINATOR     = 

OBJECT_NAME    = STARLINK-35404
OBJECT_ID      = 2025-253T
CENTER_NAME    = EARTH
REF_FRAME      = TEME
TIME_SYSTEM    = UTC
MEAN_ELEMENT_THEORY = SGP/SGP4

EPOCH          = 2025-11-23T04:00:03.000096
MEAN_MOTION    = 15.68018746
ECCENTRICITY   = .000167
INCLINATION    = 42.9998
RA_OF_ASC_NODE = 99.4333
ARG_OF_PERICENTER = 271.0978
MEAN_ANOMALY   = 17.5246

EPHEMERIS_TYPE = 0
CLASSIFICATION_TYPE = U
NORAD_CAT_ID   = 66336
ELEMENT_SET_NO = 999
REV_AT_EPOCH   = 388
BSTAR          = -.19782E-1
MEAN_MOTION_DOT = -.1990339E-1
MEAN_MOTION_DDOT = 0

CCSDS_OMM_VERS = 2.0
CREATION_DATE  = 
ORIGINATOR     = 

OBJECT_NAME    = STARLINK-34783
OBJECT_ID      = 2025-253U
CENTER_NAME    = EARTH
REF_FRAME      = TEME
TIME_SYSTEM    = UTC
MEAN_ELEMENT_THEORY = SGP/SGP4

EPOCH          = 2025-11-23T04:00:03.000096
MEAN_MOTION    = 15.68016288
ECCENTRICITY   = .0001758
INCLINATION    = 42.9997
RA_OF_ASC_NODE = 99.4140
ARG_OF_PERICENTER = 269.9130
MEAN_ANOMALY   = 26.3786

EPHEMERIS_TYPE = 0
CLASSIFICATION_TYPE = U
NORAD_CAT_ID   = 66337
ELEMENT_SET_NO = 999
REV_AT_EPOCH   = 383
BSTAR          = -.19749E-1
MEAN_MOTION_DOT = -.1987288E-1
MEAN_MOTION_DDOT = 0

CCSDS_OMM_VERS = 2.0
CREATION_DATE  = 
ORIGINATOR     = 

OBJECT_NAME    = STARLINK-35477
OBJECT_ID      = 2025-253V
CENTER_NAME    = EARTH
REF_FRAME      = TEME
TIME_SYSTEM    = UTC
MEAN_ELEMENT_THEORY = SGP/SGP4

EPOCH          = 2025-11-23T04:00:03.000096
MEAN_MOTION    = 15.68018424
ECCENTRICITY   = .0001719
INCLINATION    = 42.9996
RA_OF_ASC_NODE = 99.4242
ARG_OF_PERICENTER = 270.4492
MEAN_ANOMALY   = 22.0072

EPHEMERIS_TYPE = 0
CLASSIFICATION_TYPE = U
NORAD_CAT_ID   = 66338
ELEMENT_SET_NO = 999
REV_AT_EPOCH   = 388
BSTAR          = -.19777E-1
MEAN_MOTION_DOT = -.1989895E-1
MEAN_MOTION_DDOT = 0

CCSDS_OMM_VERS = 2.0
CREATION_DATE  = 
ORIGINATOR     = 

OBJECT_NAME    = STARLINK-35443
OBJECT_ID      = 2025-253W
CENTER_NAME    = EARTH
REF_FRAME      = TEME
TIME_SYSTEM    = UTC
MEAN_ELEMENT_THEORY = SGP/SGP4

EPOCH          = 2025-11-23T04:00:03.000096
MEAN_MOTION    = 15.68020153
ECCENTRICITY   = .0001658
INCLINATION    = 42.9998
RA_OF_ASC_NODE = 99.3986
ARG_OF_PERICENTER = 270.3283
MEAN_ANOMALY   = 31.7130

EPHEMERIS_TYPE = 0
CLASSIFICATION_TYPE = U
NORAD_CAT_ID   = 66339
ELEMENT_SET_NO = 999
REV_AT_EPOCH   = 383
BSTAR          = -.19799E-1
MEAN_MOTION_DOT = -.1991962E-1
MEAN_MOTION_DDOT = 0

CCSDS_OMM_VERS = 2.0
CREATION_DATE  = 
ORIGINATOR     = 

OBJECT_NAME    = STARLINK-35218
OBJECT_ID      = 2025-253X
CENTER_NAME    = EARTH
REF_FRAME      = TEME
TIME_SYSTEM    = UTC
MEAN_ELEMENT_THEORY = SGP/SGP4

EPOCH          = 2025-11-23T04:00:03.000096
MEAN_MOTION    = 15.68020846
ECCENTRICITY   = .0001685
INCLINATION    = 42.9998
RA_OF_ASC_NODE = 99.4283
ARG_OF_PERICENTER = 268.0150
MEAN_ANOMALY   = 22.5239

EPHEMERIS_TYPE = 0
CLASSIFICATION_TYPE = U
NORAD_CAT_ID   = 66340
ELEMENT_SET_NO = 999
REV_AT_EPOCH   = 388
BSTAR          = -.19813E-1
MEAN_MOTION_DOT = -.1993234E-1
MEAN_MOTION_DDOT = 0

CCSDS_OMM_VERS = 2.0
CREATION_DATE  = 
ORIGINATOR     = 

OBJECT_NAME    = STARLINK-35522
OBJECT_ID      = 2025-253Y
CENTER_NAME    = EARTH
REF_FRAME      = TEME
TIME_SYSTEM    = UTC
MEAN_ELEMENT_THEORY = SGP/SGP4

EPOCH          = 2025-11-23T04:00:03.000096
MEAN_MOTION    = 15.68021226
ECCENTRICITY   = .0001701
INCLINATION    = 42.9999
RA_OF_ASC_NODE = 99.4490
ARG_OF_PERICENTER = 267.7362
MEAN_ANOMALY   = 15.1365

EPHEMERIS_TYPE = 0
CLASSIFICATION_TYPE = U
NORAD_CAT_ID   = 66341
ELEMENT_SET_NO = 999
REV_AT_EPOCH   = 388
BSTAR          = -.19844E-1
MEAN_MOTION_DOT = -.1996011E-1
MEAN_MOTION_DDOT = 0

CCSDS_OMM_VERS = 2.0
CREATION_DATE  = 
ORIGINATOR     = 

OBJECT_NAME    = STARLINK-35535
OBJECT_ID      = 2025-253Z
CENTER_NAME    = EARTH
REF_FRAME      = TEME
TIME_SYSTEM    = UTC
MEAN_ELEMENT_THEORY = SGP/SGP4

EPOCH          = 2025-11-23T04:00:03.000096
MEAN_MOTION    = 15.68021165
ECCENTRICITY   = .0001752
INCLINATION    = 43.0001
RA_OF_ASC_NODE = 99.4037
ARG_OF_PERICENTER = 269.3832
MEAN_ANOMALY   = 30.7407

EPHEMERIS_TYPE = 0
CLASSIFICATION_TYPE = U
NORAD_CAT_ID   = 66342
ELEMENT_SET_NO = 999
REV_AT_EPOCH   = 378
BSTAR          = -.19816E-1
MEAN_MOTION_DOT = -.1993565E-1
MEAN_MOTION_DDOT = 0

CCSDS_OMM_VERS = 2.0
CREATION_DATE  = 
ORIGINATOR     = 

OBJECT_NAME    = STARLINK-35467
OBJECT_ID      = 2025-253AA
CENTER_NAME    = EARTH
REF_FRAME      = TEME
TIME_SYSTEM    = UTC
MEAN_ELEMENT_THEORY = SGP/SGP4

EPOCH          = 2025-11-23T04:00:03.000096
MEAN_MOTION    = 15.68017740
ECCENTRICITY   = .0001739
INCLINATION    = 43.0001
RA_OF_ASC_NODE = 99.4077
ARG_OF_PERICENTER = 268.9063
MEAN_ANOMALY   = 29.3022

EPHEMERIS_TYPE = 0
CLASSIFICATION_TYPE = U
NORAD_CAT_ID   = 66343
ELEMENT_SET_NO = 999
REV_AT_EPOCH   = 378
BSTAR          = -.19769E-1
MEAN_MOTION_DOT = -.198918E-1
MEAN_MOTION_DDOT = 0

CCSDS_OMM_VERS = 2.0
CREATION_DATE  = 
ORIGINATOR     = 

OBJECT_NAME    = STARLINK-35511
OBJECT_ID      = 2025-253AB
CENTER_NAME    = EARTH
REF_FRAME      = TEME
TIME_SYSTEM    = UTC
MEAN_ELEMENT_THEORY = SGP/SGP4

EPOCH          = 2025-11-23T04:00:03.000096
MEAN_MOTION    = 15.68010307
ECCENTRICITY   = .0001648
INCLINATION    = 42.9997
RA_OF_ASC_NODE = 99.3847
ARG_OF_PERICENTER = 270.1810
MEAN_ANOMALY   = 37.6151

EPHEMERIS_TYPE = 0
CLASSIFICATION_TYPE = U
NORAD_CAT_ID   = 66344
ELEMENT_SET_NO = 999
REV_AT_EPOCH   = 378
BSTAR          = -.1964E-1
MEAN_MOTION_DOT = -.1977103E-1
MEAN_MOTION_DDOT = 0

CCSDS_OMM_VERS = 2.0
CREATION_DATE  = 
ORIGINATOR     = 

OBJECT_NAME    = STARLINK-35440
OBJECT_ID      = 2025-253AC
CENTER_NAME    = EARTH
REF_FRAME      = TEME
TIME_SYSTEM    = UTC
MEAN_ELEMENT_THEORY = SGP/SGP4

EPOCH          = 2025-11-23T04:00:03.000096
MEAN_MOTION    = 15.68020079
ECCENTRICITY   = .0001707
INCLINATION    = 43.0000
RA_OF_ASC_NODE = 99.3917
ARG_OF_PERICENTER = 266.1684
MEAN_ANOMALY   = 37.7930

EPHEMERIS_TYPE = 0
CLASSIFICATION_TYPE = U
NORAD_CAT_ID   = 66345
ELEMENT_SET_NO = 999
REV_AT_EPOCH   = 378
BSTAR          = -.19819E-1
MEAN_MOTION_DOT = -.1993713E-1
MEAN_MOTION_DDOT = 0

CCSDS_OMM_VERS = 2.0
CREATION_DATE  = 
ORIGINATOR     = 

OBJECT_NAME    = STARLINK-35482
OBJECT_ID      = 2025-253AD
CENTER_NAME    = EARTH
REF_FRAME      = TEME
TIME_SYSTEM    = UTC
MEAN_ELEMENT_THEORY = SGP/SGP4

EPOCH          = 2025-11-23T04:00:03.000096
MEAN_MOTION    = 15.67989002
ECCENTRICITY   = .0001936
INCLINATION    = 42.9999
RA_OF_ASC_NODE = 99.3882
ARG_OF_PERICENTER = 278.5997
MEAN_ANOMALY   = 27.2915

EPHEMERIS_TYPE = 0
CLASSIFICATION_TYPE = U
NORAD_CAT_ID   = 66346
ELEMENT_SET_NO = 999
REV_AT_EPOCH   = 388
BSTAR          = -.19404E-1
MEAN_MOTION_DOT = -.1954808E-1
MEAN_MOTION_DDOT = 0

